[{"OBJECT_NAME":"STARLINK-36208","OBJECT_ID":"2025-299G","EPOCH":"2026-03-09T22:00:01.999584","MEAN_MOTION":15.27598092,"ECCENTRICITY":0.00010772,"INCLINATION":42.9994,"RA_OF_ASC_NODE":167.3604,"ARG_OF_PERICENTER":316.6192,"MEAN_ANOMALY":92.7186,"EPHEMERIS_TYPE":0,"CLASSIFICATION_TYPE":"U","NORAD_CAT_ID":67108,"ELEMENT_SET_NO":999,"REV_AT_EPOCH":579,"BSTAR":-0.00043004302,"MEAN_MOTION_DOT":-0.00012083,"MEAN_MOTION_DDOT":0},{"OBJECT_NAME":"CZ-6A DEB","OBJECT_ID":"2024-140RA","EPOCH":"2026-03-09T01:51:18.259488","MEAN_MOTION":15.31763252,"ECCENTRICITY":0.00411794,"INCLINATION":89.1856,"RA_OF_ASC_NODE":296.0787,"ARG_OF_PERICENTER":96.6516,"MEAN_ANOMALY":263.9425,"EPHEMERIS_TYPE":0,"CLASSIFICATION_TYPE":"U","NORAD_CAT_ID":61156,"ELEMENT_SET_NO":999,"REV_AT_EPOCH":8391,"BSTAR":0.0079173326,"MEAN_MOTION_DOT":0.00256788,"MEAN_MOTION_DDOT":0}]
